{"type": "FeatureCollection", "features": [ {"type": "Feature", "properties": {"norad_id": 39155, "name": "COSMOS 2485 (747)", "group": "glo-ops", "lat": 25.099931372638693, "lon": 92.42663221913942, "alt_km": 19185.61363037205, "timestamp": "2025-12-08T21:31:04.928907+00:00", "meta": {"OBJECT_NAME": "COSMOS 2485 (747)", "OBJECT_ID": "2013-019A", "EPOCH": "2025-12-08T09:22:54.881472", "MEAN_MOTION": 2.13102915, "ECCENTRICITY": 0.00247085, "INCLINATION": 65.3111, "RA_OF_ASC_NODE": 80.0136, "ARG_OF_PERICENTER": 229.6157, "MEAN_ANOMALY": 130.1832, "EPHEMERIS_TYPE": 0, "CLASSIFICATION_TYPE": "U", "NORAD_CAT_ID": 39155, "ELEMENT_SET_NO": 999, "REV_AT_EPOCH": 9821, "BSTAR": 0, "MEAN_MOTION_DOT": -1e-07, "MEAN_MOTION_DDOT": 0}, "tle": {"line1": "1 39155U 13019A   25342.39091298 -.00000010  00000+0  00000+0 0  9994", "line2": "2 39155  65.3111  80.0136 0024708 229.6157 130.1832  2.13102915 98215"}}, "geometry": {"type": "Point", "coordinates": [92.42663221913942, 25.099931372638693]}}, {"type": "Feature", "properties": {"norad_id": 39620, "name": "COSMOS 2492 (754)", "group": "glo-ops", "lat": 51.7568311659173, "lon": -4.098879632332402, "alt_km": 19135.13102779988, "timestamp": "2025-12-08T21:31:04.928918+00:00", "meta": {"OBJECT_NAME": "COSMOS 2492 (754)", "OBJECT_ID": "2014-012A", "EPOCH": "2025-12-08T08:23:17.785824", "MEAN_MOTION": 2.13103117, "ECCENTRICITY": 0.0014207, "INCLINATION": 65.4103, "RA_OF_ASC_NODE": 320.4195, "ARG_OF_PERICENTER": 311.8365, "MEAN_ANOMALY": 48.0373, "EPHEMERIS_TYPE": 0, "CLASSIFICATION_TYPE": "U", "NORAD_CAT_ID": 39620, "ELEMENT_SET_NO": 999, "REV_AT_EPOCH": 9117, "BSTAR": 0, "MEAN_MOTION_DOT": -4.9e-07, "MEAN_MOTION_DDOT": 0}, "tle": {"line1": "1 39620U 14012A   25342.34951141 -.00000049  00000+0  00000+0 0  9994", "line2": "2 39620  65.4103 320.4195 0014207 311.8365  48.0373  2.13103117 91178"}}, "geometry": {"type": "Point", "coordinates": [-4.098879632332402, 51.7568311659173]}}, {"type": "Feature", "properties": {"norad_id": 40001, "name": "COSMOS 2500 (755)", "group": "glo-ops", "lat": -60.02720057982631, "lon": -92.61537345708562, "alt_km": 19128.30106541182, "timestamp": "2025-12-08T21:31:04.928929+00:00", "meta": {"OBJECT_NAME": "COSMOS 2500 (755)", "OBJECT_ID": "2014-032A", "EPOCH": "2025-12-08T01:15:37.591488", "MEAN_MOTION": 2.13105896, "ECCENTRICITY": 0.00081247, "INCLINATION": 65.3461, "RA_OF_ASC_NODE": 320.1922, "ARG_OF_PERICENTER": 219.298, "MEAN_ANOMALY": 140.6379, "EPHEMERIS_TYPE": 0, "CLASSIFICATION_TYPE": "U", "NORAD_CAT_ID": 40001, "ELEMENT_SET_NO": 999, "REV_AT_EPOCH": 8938, "BSTAR": 0, "MEAN_MOTION_DOT": -4.9e-07, "MEAN_MOTION_DDOT": 0}, "tle": {"line1": "1 40001U 14032A   25342.05251842 -.00000049  00000+0  00000+0 0  9990", "line2": "2 40001  65.3461 320.1922 0008124 219.2980 140.6379  2.13105896 89380"}}, "geometry": {"type": "Point", "coordinates": [-92.61537345708562, -60.02720057982631]}}, {"type": "Feature", "properties": {"norad_id": 40315, "name": "COSMOS 2501 (702K)", "group": "glo-ops", "lat": 63.529157330285784, "lon": -77.43734704114416, "alt_km": 19145.944037539517, "timestamp": "2025-12-08T21:31:04.928940+00:00", "meta": {"OBJECT_NAME": "COSMOS 2501 (702K)", "OBJECT_ID": "2014-075A", "EPOCH": "2025-12-07T20:13:51.362112", "MEAN_MOTION": 2.13101338, "ECCENTRICITY": 0.00201356, "INCLINATION": 63.6139, "RA_OF_ASC_NODE": 196.9947, "ARG_OF_PERICENTER": 204.4913, "MEAN_ANOMALY": 155.4908, "EPHEMERIS_TYPE": 0, "CLASSIFICATION_TYPE": "U", "NORAD_CAT_ID": 40315, "ELEMENT_SET_NO": 999, "REV_AT_EPOCH": 8577, "BSTAR": 0, "MEAN_MOTION_DOT": 5.4e-07, "MEAN_MOTION_DDOT": 0}, "tle": {"line1": "1 40315U 14075A   25341.84295558  .00000054  00000+0  00000+0 0  9998", "line2": "2 40315  63.6139 196.9947 0020135 204.4913 155.4908  2.13101338 85773"}}, "geometry": {"type": "Point", "coordinates": [-77.43734704114416, 63.529157330285784]}}, {"type": "Feature", "properties": {"norad_id": 41330, "name": "COSMOS 2514 (751)", "group": "glo-ops", "lat": 63.159185940848985, "lon": 73.15445436467203, "alt_km": 19138.479350221478, "timestamp": "2025-12-08T21:31:04.928951+00:00", "meta": {"OBJECT_NAME": "COSMOS 2514 (751)", "OBJECT_ID": "2016-008A", "EPOCH": "2025-12-08T07:06:30.420288", "MEAN_MOTION": 2.13102512, "ECCENTRICITY": 0.00122682, "INCLINATION": 65.1364, "RA_OF_ASC_NODE": 319.5561, "ARG_OF_PERICENTER": 220.0272, "MEAN_ANOMALY": 139.8771, "EPHEMERIS_TYPE": 0, "CLASSIFICATION_TYPE": "U", "NORAD_CAT_ID": 41330, "ELEMENT_SET_NO": 999, "REV_AT_EPOCH": 7655, "BSTAR": 0, "MEAN_MOTION_DOT": -4.9e-07, "MEAN_MOTION_DDOT": 0}, "tle": {"line1": "1 41330U 16008A   25342.29618542 -.00000049  00000+0  00000+0 0  9991", "line2": "2 41330  65.1364 319.5561 0012268 220.0272 139.8771  2.13102512 76558"}}, "geometry": {"type": "Point", "coordinates": [73.15445436467203, 63.159185940848985]}}, {"type": "Feature", "properties": {"norad_id": 42939, "name": "COSMOS 2522 (752)", "group": "glo-ops", "lat": -39.13402463869702, "lon": 41.680339039042, "alt_km": 19118.348788221756, "timestamp": "2025-12-08T21:31:04.928962+00:00", "meta": {"OBJECT_NAME": "COSMOS 2522 (752)", "OBJECT_ID": "2017-055A", "EPOCH": "2025-12-08T03:13:49.063296", "MEAN_MOTION": 2.13101881, "ECCENTRICITY": 0.00064484, "INCLINATION": 64.0758, "RA_OF_ASC_NODE": 198.386, "ARG_OF_PERICENTER": 225.1717, "MEAN_ANOMALY": 134.8539, "EPHEMERIS_TYPE": 0, "CLASSIFICATION_TYPE": "U", "NORAD_CAT_ID": 42939, "ELEMENT_SET_NO": 999, "REV_AT_EPOCH": 6390, "BSTAR": 0, "MEAN_MOTION_DOT": 5.1e-07, "MEAN_MOTION_DDOT": 0}, "tle": {"line1": "1 42939U 17055A   25342.13459564  .00000051  00000+0  00000+0 0  9992", "line2": "2 42939  64.0758 198.3860 0006448 225.1717 134.8539  2.13101881 63907"}}, "geometry": {"type": "Point", "coordinates": [41.680339039042, -39.13402463869702]}}, {"type": "Feature", "properties": {"norad_id": 43508, "name": "COSMOS 2527 (756)", "group": "glo-ops", "lat": -61.35626716188559, "lon": -43.14871091396608, "alt_km": 19116.860375600503, "timestamp": "2025-12-08T21:31:04.928973+00:00", "meta": {"OBJECT_NAME": "COSMOS 2527 (756)", "OBJECT_ID": "2018-053A", "EPOCH": "2025-12-08T13:33:02.442240", "MEAN_MOTION": 2.1310206, "ECCENTRICITY": 0.00087559, "INCLINATION": 65.4701, "RA_OF_ASC_NODE": 80.2713, "ARG_OF_PERICENTER": 225.5022, "MEAN_ANOMALY": 134.4409, "EPHEMERIS_TYPE": 0, "CLASSIFICATION_TYPE": "U", "NORAD_CAT_ID": 43508, "ELEMENT_SET_NO": 999, "REV_AT_EPOCH": 5821, "BSTAR": 0, "MEAN_MOTION_DOT": -1e-07, "MEAN_MOTION_DDOT": 0}, "tle": {"line1": "1 43508U 18053A   25342.56461160 -.00000010  00000+0  00000+0 0  9992", "line2": "2 43508  65.4701  80.2713 0008755 225.5022 134.4409  2.13102060 58215"}}, "geometry": {"type": "Point", "coordinates": [-43.14871091396608, -61.35626716188559]}}, {"type": "Feature", "properties": {"norad_id": 43687, "name": "COSMOS 2529 (757)", "group": "glo-ops", "lat": 0.1612404725193477, "lon": 18.944639221593693, "alt_km": 19125.46912050115, "timestamp": "2025-12-08T21:31:04.928985+00:00", "meta": {"OBJECT_NAME": "COSMOS 2529 (757)", "OBJECT_ID": "2018-086A", "EPOCH": "2025-12-08T04:37:38.472960", "MEAN_MOTION": 2.13101938, "ECCENTRICITY": 0.0007175, "INCLINATION": 64.2918, "RA_OF_ASC_NODE": 199.0421, "ARG_OF_PERICENTER": 254.1873, "MEAN_ANOMALY": 105.8121, "EPHEMERIS_TYPE": 0, "CLASSIFICATION_TYPE": "U", "NORAD_CAT_ID": 43687, "ELEMENT_SET_NO": 999, "REV_AT_EPOCH": 5521, "BSTAR": 0, "MEAN_MOTION_DOT": 5e-07, "MEAN_MOTION_DDOT": 0}, "tle": {"line1": "1 43687U 18086A   25342.19280640  .00000050  00000+0  00000+0 0  9990", "line2": "2 43687  64.2918 199.0421 0007175 254.1873 105.8121  2.13101938 55215"}}, "geometry": {"type": "Point", "coordinates": [18.944639221593693, 0.1612404725193477]}}, {"type": "Feature", "properties": {"norad_id": 44299, "name": "COSMOS 2534 (758)", "group": "glo-ops", "lat": -40.16373480194085, "lon": 175.1177204868286, "alt_km": 19115.2885554969, "timestamp": "2025-12-08T21:31:04.928996+00:00", "meta": {"OBJECT_NAME": "COSMOS 2534 (758)", "OBJECT_ID": "2019-030A", "EPOCH": "2025-12-08T11:39:55.883808", "MEAN_MOTION": 2.13102089, "ECCENTRICITY": 0.00089406, "INCLINATION": 64.3654, "RA_OF_ASC_NODE": 199.0364, "ARG_OF_PERICENTER": 283.6599, "MEAN_ANOMALY": 75.7329, "EPHEMERIS_TYPE": 0, "CLASSIFICATION_TYPE": "U", "NORAD_CAT_ID": 44299, "ELEMENT_SET_NO": 999, "REV_AT_EPOCH": 5085, "BSTAR": 0, "MEAN_MOTION_DOT": 4.7e-07, "MEAN_MOTION_DDOT": 0}, "tle": {"line1": "1 44299U 19030A   25342.48606347  .00000047  00000+0  00000+0 0  9994", "line2": "2 44299  64.3654 199.0364 0008940 283.6599  75.7329  2.13102089 50850"}}, "geometry": {"type": "Point", "coordinates": [175.1177204868286, -40.16373480194085]}}, {"type": "Feature", "properties": {"norad_id": 44850, "name": "COSMOS 2544 (759)", "group": "glo-ops", "lat": -54.0187090182455, "lon": 41.1681213789888, "alt_km": 19112.553013681012, "timestamp": "2025-12-08T21:31:04.929007+00:00", "meta": {"OBJECT_NAME": "COSMOS 2544 (759)", "OBJECT_ID": "2019-088A", "EPOCH": "2025-12-05T05:23:01.027680", "MEAN_MOTION": 2.1310179, "ECCENTRICITY": 0.00137742, "INCLINATION": 65.456, "RA_OF_ASC_NODE": 80.2099, "ARG_OF_PERICENTER": 249.0312, "MEAN_ANOMALY": 110.8229, "EPHEMERIS_TYPE": 0, "CLASSIFICATION_TYPE": "U", "NORAD_CAT_ID": 44850, "ELEMENT_SET_NO": 999, "REV_AT_EPOCH": 4658, "BSTAR": 0, "MEAN_MOTION_DOT": -2e-07, "MEAN_MOTION_DDOT": 0}, "tle": {"line1": "1 44850U 19088A   25339.22431745 -.00000020  00000+0  00000+0 0  9998", "line2": "2 44850  65.4560  80.2099 0013774 249.0312 110.8229  2.13101790 46580"}}, "geometry": {"type": "Point", "coordinates": [41.1681213789888, -54.0187090182455]}}]}